TIROS N [P]             
1 11060U 78096A   08317.91760045  .00000003  00000-0  23750-4 0   433
2 11060  98.8998 281.7086 0010088 276.1991  83.8018 14.17463628768310
NOAA 1 [-]              
1 04793U 70106A   08317.47813271 -.00000031  00000-0  10000-3 0   977
2 04793 102.0527 298.5573 0032035 129.5286 230.8623 12.53923158735757
NOAA 2 [-]              
1 06235U 72082A   08317.14226484 -.00000027  00000-0  10000-3 0  1957
2 06235 101.4239 337.5945 0003778 351.3574   8.7434 12.53000198650283
NOAA 3 [-]              
1 06920U 73086A   08318.24927433 -.00000030  00000-0  10000-3 0   815
2 06920 101.7482 342.2780 0006239 218.5844 141.4775 12.40292931585505
NOAA 4 [-]              
1 07529U 74089A   08317.16484038 -.00000027  00000-0  10000-3 0   999
2 07529 101.4670 343.6645 0009321  20.2704 339.8737 12.53053408554864
NOAA 5 [-]              
1 09057U 76077A   08316.97252852 -.00000031  00000-0  10000-3 0  9692
2 09057 101.9506 358.4737 0009541  31.7515 328.4120 12.37856976459601
NOAA 6 [P]              
1 11416U 79057A   08317.49918586  .00000050  00000-0  34582-4 0  6987
2 11416  98.4207 332.9350 0010090 179.9994 180.1208 14.31890148530702
NOAA 7 [-]              
1 12553U 81059A   08316.91149901  .00000036  00000-0  39367-4 0  8216
2 12553  98.6218 270.8389 0010789 219.9049 140.1333 14.16754447414768
NOAA 8 [-]              
1 13923U 83022A   08317.16580104  .00000016  00000-0  23942-4 0  7110
2 13923  98.5858 345.1190 0016224  27.0028 333.1995 14.27686758333882
NOAA 9 [P]              
1 15427U 84123A   08317.32366719 -.00000112  00000-0 -36285-4 0  4262
2 15427  98.4363 320.5942 0014602 327.0422  32.9817 14.15303411234284
NOAA 10 [-]             
1 16969U 86073A   08317.13327201 -.00000034  00000-0  43934-5 0  3656
2 16969  98.7130 338.7427 0013028 108.8792 251.3794 14.27372477152546
NOAA 11 [-]             
1 19531U 88089A   08317.31999515 -.00000177  00000-0 -68770-4 0  3929
2 19531  98.7948  44.5509 0011895  10.1080 350.0358 14.14880241 38858
NOAA 12 [B]             
1 21263U 91032A   08317.58005730  .00000047  00000-0  38824-4 0  9031
2 21263  98.7726 319.5612 0013376  56.1310 304.1139 14.25553968909533
NOAA 13 [-]             
1 22739U 93050A   08317.46780565 -.00000006  00000-0  20707-4 0  5713
2 22739  98.8895  33.6768 0010272  92.4479 267.7868 14.12208848786375
NOAA 14 [-]             
1 23455U 94089A   08317.39348880  .00000230  00000-0  14503-3 0  3840
2 23455  98.9345  29.6140 0010308  86.9434 273.2926 14.13753001715297
NOAA 15 [+]             
1 25338U 98030A   08317.40034044  .00000003  00000-0  19941-4 0  6953
2 25338  98.5671 305.5894 0010227 334.8920  25.1755 14.24732119545906
NOAA 16 [+]             
1 26536U 00055A   08317.39574224  .00000325  00000-0  20080-3 0  1688
2 26536  99.1691 309.9169 0010686 165.8477 194.3040 14.12503426419693
NOAA 17 [+]             
1 27453U 02032A   08317.45149188 -.00000088  00000-0 -20031-4 0  1706
2 27453  98.5182  17.6522 0012261  40.4162 319.7934 14.24015998331903
NOAA 18 [+]             
1 28654U 05018A   08317.44997926  .00000223  00000-0  14802-3 0  6585
2 28654  98.8831 256.6464 0013536 254.9684 104.9961 14.11209575179386
